HULIANWANG DIGUI-149    
1 67525U 26013D   26021.15633713 -.00000091  00000+0  40401-4 0  9990
2 67525  50.0063 177.7692 0010538 247.0477 112.9313 13.98123959   266
HULIANWANG DIGUI-150    
1 67526U 26013E   26025.15851686 -.00000115  00000+0  23740-4 0  9990
2 67526  50.0096 161.6201 0010015 258.6345 101.3432 13.98253437   846
HULIANWANG DIGUI-151    
1 67527U 26013F   26021.15608316 -.00000614  00000+0 -32354-3 0  9992
2 67527  50.0035 177.7600 0009841 238.6748 121.3191 13.98327198   267
HULIANWANG DIGUI-152    
1 67528U 26013G   26024.08719212 -.00000118  00000+0  21603-4 0  9990
2 67528  50.0047 165.9375 0009745 257.1222 102.8592 13.97836723   677
HULIANWANG DIGUI-153    
1 67529U 26013H   26021.87048088 -.00000100  00000+0  34277-4 0  9993
2 67529  50.0018 174.8698 0008966 242.4962 117.5029 13.98474895   357
HULIANWANG DIGUI-154    
1 67530U 26013J   26021.22721932 -.00000008  00000+0  98151-4 0  9998
2 67530  50.0045 177.4718 0008317 246.2151 113.7880 13.98568419   262
CZ-12 R/B               
1 67531U 26013K   26029.54311800  .00000271  00000+0  21651-3 0  9992
2 67531  49.9902 142.8353 0069060 163.0056 197.3188 14.14454871  1440
STARLINK-36587          
1 67532U 26014A   26035.25004630 -.00133427  00000+0 -70452-3 0  9994
2 67532  97.2807 278.4401 0001648  88.8437 255.3109 15.80876743  3312
STARLINK-36417          
1 67533U 26014B   26035.25004630 -.00113304  00000+0 -59699-3 0  9997
2 67533  97.2801 278.4410 0001485  87.5335 259.4709 15.80869953  3315
STARLINK-36576          
1 67534U 26014C   26035.25004630 -.00092811  00000+0 -48765-3 0  9999
2 67534  97.2800 278.4433 0001479  85.6034 266.4388 15.80873799  3312
STARLINK-36574          
1 67535U 26014D   26035.25004630 -.00042939  00000+0 -22422-3 0  9998
2 67535  97.2797 278.4464 0001058  81.6079 277.7182 15.80847115  3310
STARLINK-36572          
1 67536U 26014E   26035.25004630 -.00062243  00000+0 -32564-3 0  9997
2 67536  97.2797 278.4493 0000865  84.1110 281.9764 15.80876314  3318
